{"type": "FeatureCollection", "features": [{"type": "Feature", "properties": {"scalerank": 7, "featurecla": "Port", "name": "Walvis Bay", "website": "www.namport.com", "natlscale": 10, "ne_id": 1730088215}, "bbox": [14.50053, -22.940556, 14.50053, -22.940556], "geometry": {"type": "Point", "coordinates": [14.50053, -22.940556]}}, {"type": "Feature", "properties": {"scalerank": 6, "featurecla": "Port", "name": "Luderitz", "website": "www.namport.com", "natlscale": 20, "ne_id": 1730088821}, "bbox": [15.15371, -26.637778, 15.15371, -26.637778], "geometry": {"type": "Point", "coordinates": [15.15371, -26.637778]}}, {"type": "Feature", "properties": {"scalerank": 6, "featurecla": "Port", "name": "East London", "website": "http://www.transnetnationalportsauthority.net", "natlscale": 20, "ne_id": 1730089001}, "bbox": [27.90477, -33.025278, 27.90477, -33.025278], "geometry": {"type": "Point", "coordinates": [27.90477, -33.025278]}}, {"type": "Feature", "properties": {"scalerank": 6, "featurecla": "Port", "name": "Mossel Bay", "website": "www.transnetnationalportsauthority.net", "natlscale": 20, "ne_id": 1730089003}, "bbox": [21.418257, -34.375278, 21.418257, -34.375278], "geometry": {"type": "Point", "coordinates": [21.418257, -34.375278]}}, {"type": "Feature", "properties": {"scalerank": 6, "featurecla": "Port", "name": "Richards Bay", "website": "www.transnetnationalportsauthority.net", "natlscale": 20, "ne_id": 1730089005}, "bbox": [32.056184, -28.804722, 32.056184, -28.804722], "geometry": {"type": "Point", "coordinates": [32.056184, -28.804722]}}, {"type": "Feature", "properties": {"scalerank": 5, "featurecla": "Port", "name": "Beira", "website": "www.cfmnet.co.mz", "natlscale": 30, "ne_id": 1730089229}, "bbox": [34.83351, -19.819167, 34.83351, -19.819167], "geometry": {"type": "Point", "coordinates": [34.83351, -19.819167]}}, {"type": "Feature", "properties": {"scalerank": 5, "featurecla": "Port", "name": "Maputo", "website": "www.portmaputo.com", "natlscale": 30, "ne_id": 1730089231}, "bbox": [32.557067, -25.972778, 32.557067, -25.972778], "geometry": {"type": "Point", "coordinates": [32.557067, -25.972778]}}, {"type": "Feature", "properties": {"scalerank": 4, "featurecla": "Port", "name": "Durban", "website": "www.transnetnationalportsauthority.net", "natlscale": 50, "ne_id": 1730089511}, "bbox": [31.02338, -29.881111, 31.02338, -29.881111], "geometry": {"type": "Point", "coordinates": [31.02338, -29.881111]}}, {"type": "Feature", "properties": {"scalerank": 4, "featurecla": "Port", "name": "Port Elizabeth", "website": "www.transnetnationalportsauthority.net", "natlscale": 50, "ne_id": 1730089513}, "bbox": [25.635277, -33.961389, 25.635277, -33.961389], "geometry": {"type": "Point", "coordinates": [25.635277, -33.961389]}}, {"type": "Feature", "properties": {"scalerank": 4, "featurecla": "Port", "name": "Port Elizabeth", "website": "www.transnetnationalportsauthority.net", "natlscale": 50, "ne_id": 1730089515}, "bbox": [25.635277, -33.961389, 25.635277, -33.961389], "geometry": {"type": "Point", "coordinates": [25.635277, -33.961389]}}, {"type": "Feature", "properties": {"scalerank": 3, "featurecla": "Port", "name": "Cape Town", "website": "www.transnetnationalportsauthority.net", "natlscale": 75, "ne_id": 1730089673}, "bbox": [18.435277, -33.909167, 18.435277, -33.909167], "geometry": {"type": "Point", "coordinates": [18.435277, -33.909167]}}]}